[{"OBJECT_NAME":"ONEWEB-0353","OBJECT_ID":"2021-090D","EPOCH":"2022-08-18T22:00:00.999936","MEAN_MOTION":13.14500624,"ECCENTRICITY":0.0002579,"INCLINATION":87.9078,"RA_OF_ASC_NODE":207.6846,"ARG_OF_PERICENTER":88.6331,"MEAN_ANOMALY":216.3894,"EPHEMERIS_TYPE":0,"CLASSIFICATION_TYPE":"U","NORAD_CAT_ID":49282,"ELEMENT_SET_NO":999,"REV_AT_EPOCH":4517,"BSTAR":0.049463,"MEAN_MOTION_DOT":0.00018387,"MEAN_MOTION_DDOT":0},{"OBJECT_NAME":"ONEWEB-0356","OBJECT_ID":"2021-090E","EPOCH":"2022-08-18T22:00:00.999936","MEAN_MOTION":13.20779906,"ECCENTRICITY":0.0001398,"INCLINATION":87.9355,"RA_OF_ASC_NODE":192.5928,"ARG_OF_PERICENTER":112.9033,"MEAN_ANOMALY":269.4748,"EPHEMERIS_TYPE":0,"CLASSIFICATION_TYPE":"U","NORAD_CAT_ID":49283,"ELEMENT_SET_NO":999,"REV_AT_EPOCH":4654,"BSTAR":-0.019536,"MEAN_MOTION_DOT":-7.924e-5,"MEAN_MOTION_DDOT":0},{"OBJECT_NAME":"ONEWEB-0358","OBJECT_ID":"2021-090F","EPOCH":"2022-08-19T06:00:00.999648","MEAN_MOTION":13.91613203,"ECCENTRICITY":0.0003349,"INCLINATION":87.8419,"RA_OF_ASC_NODE":192.7729,"ARG_OF_PERICENTER":35.1975,"MEAN_ANOMALY":77.8923,"EPHEMERIS_TYPE":0,"CLASSIFICATION_TYPE":"U","NORAD_CAT_ID":49284,"ELEMENT_SET_NO":999,"REV_AT_EPOCH":4721,"BSTAR":0,"MEAN_MOTION_DOT":1.6e-7,"MEAN_MOTION_DDOT":0},{"OBJECT_NAME":"ONEWEB-0359","OBJECT_ID":"2021-090G","EPOCH":"2022-08-19T06:00:00.999648","MEAN_MOTION":13.90773399,"ECCENTRICITY":0.0002445,"INCLINATION":87.8448,"RA_OF_ASC_NODE":192.8038,"ARG_OF_PERICENTER":53.5097,"MEAN_ANOMALY":80.9907,"EPHEMERIS_TYPE":0,"CLASSIFICATION_TYPE":"U","NORAD_CAT_ID":49285,"ELEMENT_SET_NO":999,"REV_AT_EPOCH":4719,"BSTAR":0,"MEAN_MOTION_DOT":1.6e-7,"MEAN_MOTION_DDOT":0},{"OBJECT_NAME":"ONEWEB-0360","OBJECT_ID":"2021-090H","EPOCH":"2022-08-18T22:00:00.999936","MEAN_MOTION":13.20779784,"ECCENTRICITY":0.0001979,"INCLINATION":87.9339,"RA_OF_ASC_NODE":192.5444,"ARG_OF_PERICENTER":83.2543,"MEAN_ANOMALY":229.1923,"EPHEMERIS_TYPE":0,"CLASSIFICATION_TYPE":"U","NORAD_CAT_ID":49286,"ELEMENT_SET_NO":999,"REV_AT_EPOCH":4656,"BSTAR":-0.021397,"MEAN_MOTION_DOT":-8.68e-5,"MEAN_MOTION_DDOT":0},{"OBJECT_NAME":"ONEWEB-0361","OBJECT_ID":"2021-090J","EPOCH":"2022-08-18T22:00:00.999936","MEAN_MOTION":13.20769444,"ECCENTRICITY":0.0002054,"INCLINATION":87.9336,"RA_OF_ASC_NODE":192.5799,"ARG_OF_PERICENTER":82.919,"MEAN_ANOMALY":309.6174,"EPHEMERIS_TYPE":0,"CLASSIFICATION_TYPE":"U","NORAD_CAT_ID":49287,"ELEMENT_SET_NO":999,"REV_AT_EPOCH":4655,"BSTAR":-0.018961,"MEAN_MOTION_DOT":-7.69e-5,"MEAN_MOTION_DDOT":0},{"OBJECT_NAME":"ONEWEB-0362","OBJECT_ID":"2021-090K","EPOCH":"2022-08-18T22:00:00.999936","MEAN_MOTION":13.19711632,"ECCENTRICITY":0.0002377,"INCLINATION":87.9117,"RA_OF_ASC_NODE":222.8013,"ARG_OF_PERICENTER":95.2682,"MEAN_ANOMALY":32.4784,"EPHEMERIS_TYPE":0,"CLASSIFICATION_TYPE":"U","NORAD_CAT_ID":49288,"ELEMENT_SET_NO":999,"REV_AT_EPOCH":4330,"BSTAR":0.096219,"MEAN_MOTION_DOT":0.0003869,"MEAN_MOTION_DDOT":0},{"OBJECT_NAME":"ONEWEB-0363","OBJECT_ID":"2021-090L","EPOCH":"2022-08-18T22:00:00.999936","MEAN_MOTION":13.20779138,"ECCENTRICITY":0.0001746,"INCLINATION":87.9342,"RA_OF_ASC_NODE":192.5786,"ARG_OF_PERICENTER":89.0177,"MEAN_ANOMALY":233.3345,"EPHEMERIS_TYPE":0,"CLASSIFICATION_TYPE":"U","NORAD_CAT_ID":49289,"ELEMENT_SET_NO":999,"REV_AT_EPOCH":4656,"BSTAR":-0.021356,"MEAN_MOTION_DOT":-8.663e-5,"MEAN_MOTION_DDOT":0},{"OBJECT_NAME":"ONEWEB-0364","OBJECT_ID":"2021-090M","EPOCH":"2022-08-18T22:00:00.999936","MEAN_MOTION":14.2786967,"ECCENTRICITY":0.000128,"INCLINATION":87.6898,"RA_OF_ASC_NODE":200.3376,"ARG_OF_PERICENTER":80.1274,"MEAN_ANOMALY":199.7027,"EPHEMERIS_TYPE":0,"CLASSIFICATION_TYPE":"U","NORAD_CAT_ID":49290,"ELEMENT_SET_NO":999,"REV_AT_EPOCH":4639,"BSTAR":0.0022697,"MEAN_MOTION_DOT":5.632e-5,"MEAN_MOTION_DDOT":0},{"OBJECT_NAME":"ONEWEB-0365","OBJECT_ID":"2021-090N","EPOCH":"2022-08-18T22:00:00.999936","MEAN_MOTION":13.1970881,"ECCENTRICITY":0.0002075,"INCLINATION":87.9225,"RA_OF_ASC_NODE":222.87,"ARG_OF_PERICENTER":83.4934,"MEAN_ANOMALY":14.8061,"EPHEMERIS_TYPE":0,"CLASSIFICATION_TYPE":"U","NORAD_CAT_ID":49291,"ELEMENT_SET_NO":999,"REV_AT_EPOCH":4328,"BSTAR":0.099776,"MEAN_MOTION_DOT":0.00040125,"MEAN_MOTION_DDOT":0},{"OBJECT_NAME":"ONEWEB-0366","OBJECT_ID":"2021-090P","EPOCH":"2022-08-18T22:00:00.999936","MEAN_MOTION":13.14497912,"ECCENTRICITY":0.0002328,"INCLINATION":87.9088,"RA_OF_ASC_NODE":207.6684,"ARG_OF_PERICENTER":92.683,"MEAN_ANOMALY":232.3673,"EPHEMERIS_TYPE":0,"CLASSIFICATION_TYPE":"U","NORAD_CAT_ID":49292,"ELEMENT_SET_NO":999,"REV_AT_EPOCH":4516,"BSTAR":0.04851,"MEAN_MOTION_DOT":0.00018031,"MEAN_MOTION_DDOT":0},{"OBJECT_NAME":"ONEWEB-0367","OBJECT_ID":"2021-090Q","EPOCH":"2022-08-18T22:00:00.999936","MEAN_MOTION":13.20786907,"ECCENTRICITY":0.0002254,"INCLINATION":87.9365,"RA_OF_ASC_NODE":192.6147,"ARG_OF_PERICENTER":86.2914,"MEAN_ANOMALY":246.0311,"EPHEMERIS_TYPE":0,"CLASSIFICATION_TYPE":"U","NORAD_CAT_ID":49293,"ELEMENT_SET_NO":999,"REV_AT_EPOCH":4655,"BSTAR":-0.021181,"MEAN_MOTION_DOT":-8.593e-5,"MEAN_MOTION_DDOT":0},{"OBJECT_NAME":"ONEWEB-0368","OBJECT_ID":"2021-090R","EPOCH":"2022-08-18T22:00:00.999936","MEAN_MOTION":14.27819475,"ECCENTRICITY":0.0002492,"INCLINATION":87.6924,"RA_OF_ASC_NODE":200.3162,"ARG_OF_PERICENTER":26.6027,"MEAN_ANOMALY":16.1189,"EPHEMERIS_TYPE":0,"CLASSIFICATION_TYPE":"U","NORAD_CAT_ID":49294,"ELEMENT_SET_NO":999,"REV_AT_EPOCH":4640,"BSTAR":0.0034131,"MEAN_MOTION_DOT":8.455e-5,"MEAN_MOTION_DDOT":0},{"OBJECT_NAME":"ONEWEB-0369","OBJECT_ID":"2021-090S","EPOCH":"2022-08-18T22:00:00.999936","MEAN_MOTION":13.1971026,"ECCENTRICITY":0.0002336,"INCLINATION":87.9235,"RA_OF_ASC_NODE":222.8355,"ARG_OF_PERICENTER":92.3055,"MEAN_ANOMALY":20.7597,"EPHEMERIS_TYPE":0,"CLASSIFICATION_TYPE":"U","NORAD_CAT_ID":49295,"ELEMENT_SET_NO":999,"REV_AT_EPOCH":4327,"BSTAR":0.10041,"MEAN_MOTION_DOT":0.00040382,"MEAN_MOTION_DDOT":0},{"OBJECT_NAME":"ONEWEB-0370","OBJECT_ID":"2021-090T","EPOCH":"2022-08-18T22:00:00.999936","MEAN_MOTION":13.2078367,"ECCENTRICITY":0.0002071,"INCLINATION":87.9351,"RA_OF_ASC_NODE":192.5792,"ARG_OF_PERICENTER":87.385,"MEAN_ANOMALY":215.0628,"EPHEMERIS_TYPE":0,"CLASSIFICATION_TYPE":"U","NORAD_CAT_ID":49296,"ELEMENT_SET_NO":999,"REV_AT_EPOCH":4659,"BSTAR":-0.021043,"MEAN_MOTION_DOT":-8.536e-5,"MEAN_MOTION_DDOT":0},{"OBJECT_NAME":"ONEWEB-0371","OBJECT_ID":"2021-090U","EPOCH":"2022-08-18T22:00:00.999936","MEAN_MOTION":13.19707325,"ECCENTRICITY":0.0002006,"INCLINATION":87.9224,"RA_OF_ASC_NODE":222.7679,"ARG_OF_PERICENTER":86.1046,"MEAN_ANOMALY":357.547,"EPHEMERIS_TYPE":0,"CLASSIFICATION_TYPE":"U","NORAD_CAT_ID":49297,"ELEMENT_SET_NO":999,"REV_AT_EPOCH":4331,"BSTAR":0.098436,"MEAN_MOTION_DOT":0.00039583,"MEAN_MOTION_DDOT":0},{"OBJECT_NAME":"ONEWEB-0372","OBJECT_ID":"2021-090V","EPOCH":"2022-08-18T22:00:00.999936","MEAN_MOTION":13.2078654,"ECCENTRICITY":0.0002432,"INCLINATION":87.9341,"RA_OF_ASC_NODE":192.5788,"ARG_OF_PERICENTER":94.7722,"MEAN_ANOMALY":247.6665,"EPHEMERIS_TYPE":0,"CLASSIFICATION_TYPE":"U","NORAD_CAT_ID":49298,"ELEMENT_SET_NO":999,"REV_AT_EPOCH":4656,"BSTAR":-0.021195,"MEAN_MOTION_DOT":-8.599e-5,"MEAN_MOTION_DDOT":0}]