ONEWEB-0353             
1 49282U 21090D   22230.91667824  .00018387  00000+0  49463-1 0  9992
2 49282  87.9078 207.6846 0002579  88.6331 216.3894 13.14500624 45177
ONEWEB-0356             
1 49283U 21090E   22230.91667824 -.00007924  00000+0 -19536-1 0  9998
2 49283  87.9355 192.5928 0001398 112.9033 269.4748 13.20779906 46544
ONEWEB-0358             
1 49284U 21090F   22231.25001157  .00000016  00000+0  00000+0 0  9995
2 49284  87.8419 192.7729 0003349  35.1975  77.8923 13.91613203 47211
ONEWEB-0359             
1 49285U 21090G   22231.25001157  .00000016  00000+0  00000+0 0  9996
2 49285  87.8448 192.8038 0002445  53.5097  80.9907 13.90773399 47199
ONEWEB-0360             
1 49286U 21090H   22230.91667824 -.00008680  00000+0 -21397-1 0  9999
2 49286  87.9339 192.5444 0001979  83.2543 229.1923 13.20779784 46567
ONEWEB-0361             
1 49287U 21090J   22230.91667824 -.00007690  00000+0 -18961-1 0  9993
2 49287  87.9336 192.5799 0002054  82.9190 309.6174 13.20769444 46550
ONEWEB-0362             
1 49288U 21090K   22230.91667824  .00038690  00000+0  96219-1 0  9998
2 49288  87.9117 222.8013 0002377  95.2682  32.4784 13.19711632 43307
ONEWEB-0363             
1 49289U 21090L   22230.91667824 -.00008663  00000+0 -21356-1 0  9998
2 49289  87.9342 192.5786 0001746  89.0177 233.3345 13.20779138 46560
ONEWEB-0364             
1 49290U 21090M   22230.91667824  .00005632  00000+0  22697-2 0  9991
2 49290  87.6898 200.3376 0001280  80.1274 199.7027 14.27869670 46393
ONEWEB-0365             
1 49291U 21090N   22230.91667824  .00040125  00000+0  99776-1 0  9999
2 49291  87.9225 222.8700 0002075  83.4934  14.8061 13.19708810 43281
ONEWEB-0366             
1 49292U 21090P   22230.91667824  .00018031  00000+0  48510-1 0  9991
2 49292  87.9088 207.6684 0002328  92.6830 232.3673 13.14497912 45167
ONEWEB-0367             
1 49293U 21090Q   22230.91667824 -.00008593  00000+0 -21181-1 0  9991
2 49293  87.9365 192.6147 0002254  86.2914 246.0311 13.20786907 46550
ONEWEB-0368             
1 49294U 21090R   22230.91667824  .00008455  00000+0  34131-2 0  9997
2 49294  87.6924 200.3162 0002492  26.6027  16.1189 14.27819475 46408
ONEWEB-0369             
1 49295U 21090S   22230.91667824  .00040382  00000+0  10041+0 0  9994
2 49295  87.9235 222.8355 0002336  92.3055  20.7597 13.19710260 43276
ONEWEB-0370             
1 49296U 21090T   22230.91667824 -.00008536  00000+0 -21043-1 0  9998
2 49296  87.9351 192.5792 0002071  87.3850 215.0628 13.20783670 46596
ONEWEB-0371             
1 49297U 21090U   22230.91667824  .00039583  00000+0  98436-1 0  9993
2 49297  87.9224 222.7679 0002006  86.1046 357.5470 13.19707325 43313
ONEWEB-0372             
1 49298U 21090V   22230.91667824 -.00008599  00000+0 -21195-1 0  9997
2 49298  87.9341 192.5788 0002432  94.7722 247.6665 13.20786540 46561
